JILIN-1                 
1 40961U 15057D   26063.15041038  .00001150  00000+0  16588-3 0  9994
2 40961  97.6514  67.7473 0015617 243.2545 116.7069 14.77981645560095
FOX-1A (AO-85)          
1 40967U 15058D   26063.02281073  .00005669  00000+0  51138-3 0  9991
2 40967  64.7735 245.6353 0129180  98.1982 263.3804 14.90296117 97895
SINOD-D 1               
1 40968U 15058E   26062.88698986  .00008169  00000+0  66247-3 0  9995
2 40968  64.7742 228.4401 0117530  95.6175 265.8355 14.94968554100910
ELEKTRO-L 2             
1 41105U 15074A   26062.86880331 -.00000128  00000+0  00000+0 0  9991
2 41105   6.4296  71.8188 0003467 237.1165 150.9510  1.00270829 37457
DAMPE                   
1 41173U 15078A   26063.17765083  .00002817  00000+0  98003-4 0  9992
2 41173  97.4575  68.1411 0013900  88.6638 271.6195 15.30476679568488
ORBCOMM FM114           
1 41179U 15081A   26062.57255876  .00000786  00000+0  20306-3 0  9992
2 41179  47.0042 141.2880 0001266  74.5268 285.5758 14.58718203542338
ORBCOMM FM110           
1 41182U 15081D   26062.56178373  .00001282  00000+0  30825-3 0  9990
2 41182  47.0014 140.8129 0003548 295.0481  65.0036 14.58720495542206
ORBCOMM FM112           
1 41184U 15081F   26063.01028602  .00001040  00000+0  25689-3 0  9996
2 41184  46.9996  47.5080 0000994  53.6338 306.4639 14.58718421543595
ORBCOMM FM113           
1 41185U 15081G   26063.05599381  .00001000  00000+0  24842-3 0  9994
2 41185  47.0013  47.6591 0000577  63.2334 296.8611 14.58719604543581
ORBCOMM FM108           
1 41187U 15081J   26062.67618107  .00001299  00000+0  31190-3 0  9995
2 41187  47.0059 320.9947 0002200  59.3085 300.8017 14.58730739544678
ORBCOMM FM117           
1 41188U 15081K   26063.05266200  .00001285  00000+0  30902-3 0  9997
2 41188  47.0022 317.8837 0002525  72.5276 287.5886 14.58723735544775
ORBCOMM FM116           
1 41189U 15081L   26063.03344103  .00001186  00000+0  28805-3 0  9994
2 41189  47.0029  47.7556 0002670 292.9065  67.1539 14.58713856543583
CHUBUSAT-2              
1 41338U 16012B   26063.03409045  .00009362  00000+0  42224-3 0  9997
2 41338  30.9975 290.8603 0008837  82.1511 278.0133 15.19650305552401
CHUBUSAT-3              
1 41339U 16012C   26063.07134231  .00007654  00000+0  36621-3 0  9990
2 41339  31.0046 297.7963 0009111  74.1149 286.0495 15.17544435552215
HORYU-4                 
1 41340U 16012D   26062.46124036  .00094219  00000+0  10417-2 0  9993
2 41340  30.9913 111.5367 0002020  83.5639 276.5244 15.61617061554133
ZIYUAN 3-02 (ZY 3-02)   
1 41556U 16033A   26063.21578038  .00010743  00000+0  47999-3 0  9990
2 41556  97.3912 140.9696 0011276 320.3889  39.6522 15.21460372542020
CARTOSAT-2C             
1 41599U 16040A   26063.20471617  .00003484  00000+0  16812-3 0  9993
2 41599  97.4621 124.5555 0010544 140.3860 219.8147 15.19297385537773
